satname,norad_id,inclination_deg,eccentricity,mean_motion_rev_per_day,perigee_km,apogee_km,l1,l2
STARLINK-1582,46043,53.1623,0.0001255,15.30204105,474.3427185101673,476.06290680314396,1 46043U 20055S   26084.83200243  .00005424  00000+0  19508-3 0  9991,2 46043  53.1623  51.7152 0001255  96.5599 263.5545 15.30204105311350
STARLINK-1591,46045,53.1592,0.0001594,15.30177685,474.1892638561476,476.3741337373249,1 46045U 20055U   26084.83335647  .00058549  00000+0  19748-2 0  9991,2 46045  53.1592  51.7183 0001594  96.7879 125.6044 15.30177685  5769
STARLINK-1524,46047,53.1624,0.0001394,15.30183794,474.30809401738316,476.21882206508417,1 46047U 20055W   26084.59125539  .00001451  00000+0  61131-4 0  9998,2 46047  53.1624  39.9789 0001394  91.2932 268.8228 15.30183794311509
STARLINK-1527,46048,53.1623,0.0001391,15.30185424,474.3052837467376,476.2118984001727,1 46048U 20055X   26084.59758652  .00002633  00000+0  10104-3 0  9993,2 46048  53.1623  40.0464 0001391  93.5615 266.5545 15.30185424311488
STARLINK-1540,46051,53.1595,0.000111,15.30190842,474.4816885780401,476.0031388078787,1 46051U 20055AA  26084.16352897  .00001264  00000+0  54811-4 0  9994,2 46051  53.1595  41.9680 0001110  78.8298 281.2828 15.30190842311457
STARLINK-1541,46052,53.1612,0.0001448,15.30193733,474.24141352637616,476.22614970473205,1 46052U 20055AB  26084.61021563  .00001842  00000+0  74314-4 0  9990,2 46052  53.1612  39.9347 0001448  82.1687 277.9478 15.30193733311487
STARLINK-1543,46053,53.1616,0.0001328,15.30197728,474.31172715448065,476.1319792658933,1 46053U 20055AC  26084.15933409  .00002473  00000+0  95587-4 0  9997,2 46053  53.1616  42.0567 0001328  85.7721 274.3432 15.30197728311441
STARLINK-1548,46054,53.1617,0.000164,15.30150229,474.23970657050177,476.4876547937665,1 46054U 20055AD  26084.29735059  .00014067  00000+0  48692-3 0  9990,2 46054  53.1617  41.4161 0001640  91.5243 268.5946 15.30150229311469
STARLINK-1554,46055,53.1623,0.0001574,15.30200626,474.13448297527157,476.291917618325,1 46055U 20055AE  26084.16462702  .00007269  00000+0  25732-3 0  9995,2 46055  53.1623  42.1597 0001574  96.8496 263.2684 15.30200626311448
STARLINK-1564,46058,53.1604,0.0001272,15.30188668,474.37715425041824,476.1206556246352,1 46058U 20055AH  26084.16255506  .00000199  00000+0  18844-4 0  9992,2 46058  53.1604  42.4979 0001272  91.5236 268.5911 15.30188668311437
STARLINK-1570,46059,53.1619,0.0001508,15.30189058,474.2142500348391,476.2812308725588,1 46059U 20055AJ  26084.12668814  .00003133  00000+0  11792-3 0  9994,2 46059  53.1619  42.2085 0001508  87.9174 272.1999 15.30189058311398
STARLINK-1572,46060,53.1615,0.0001426,15.3018904,474.27050152744414,476.2250868707488,1 46060U 20055AK  26084.14357857  .00006524  00000+0  23227-3 0  9993,2 46060  53.1615  42.3344 0001426  93.9506 266.1658 15.30189040311408
STARLINK-1573,46061,53.1606,0.0001323,15.30210259,474.2777436394017,476.0911324919134,1 46061U 20055AL  26084.30681821  .00015816  00000+0  54480-3 0  9992,2 46061  53.1606  41.3230 0001323  92.1379 267.9773 15.30210259311467
STARLINK-1577,46063,53.1614,8.03e-05,15.30186185,474.7059913459934,475.80664631299715,1 46063U 20055AN  26084.59439619  .00006777  00000+0  24082-3 0  9992,2 46063  53.1614  39.9607 0000803  71.2830 288.8258 15.30186185311506
STARLINK-1583,46064,53.1616,0.0001301,15.30200388,474.32228996799586,476.10553187501773,1 46064U 20055AP  26084.56491808  .00005728  00000+0  20536-3 0  9993,2 46064  53.1616  40.1258 0001301  86.1555 273.9595 15.30200388311497
STARLINK-1525,46066,53.0555,0.0001372,15.32011978,468.87062451335805,470.74970121484694,1 46066U 20055AR  26084.83335647  .00133944  00000+0  42097-2 0  9990,2 46066  53.0555  22.1216 0001372  93.4288 258.3492 15.32011978  6026
STARLINK-1536,46070,53.0566,0.0001366,15.06390023,546.2961293850931,548.1881429650966,1 46070U 20055AV  26084.54067673  .00001472  00000+0  11773-3 0  9992,2 46070  53.0566  25.4612 0001366  88.4853 271.6293 15.06390023311707
STARLINK-1542,46073,53.0569,0.0001408,15.06389518,546.2685903445781,548.2187775451785,1 46073U 20055AY  26084.53330373  .00001514  00000+0  12058-3 0  9998,2 46073  53.0569  25.4945 0001408  86.0165 274.0985 15.06389518311699
STARLINK-1549,46074,53.0556,0.0001867,15.06390455,545.9478441054871,548.5337801805417,1 46074U 20055AZ  26084.85028596 -.00001008  00000+0 -48774-4 0  9990,2 46074  53.0556  24.0705 0001867  92.0969 268.0234 15.06390455311730
STARLINK-1551,46075,53.0576,0.0001564,15.06389344,546.1610876136792,548.3273468584302,1 46075U 20055BA  26084.54436807  .00001299  00000+0  10614-3 0  9996,2 46075  53.0576  25.4462 0001564  92.7340 267.3828 15.06389344311693
STARLINK-1552,46076,53.0565,0.0001413,15.06397123,546.2418225457823,548.1989285401096,1 46076U 20055BB  26084.57016068 -.00000336  00000+0 -36741-5 0  9997,2 46076  53.0565  25.3286 0001413  89.3021 270.8130 15.06397123311684
STARLINK-1559,46077,53.0274,0.0004396,15.31031836,469.72083944298265,475.7441238912643,1 46077U 20055BC  26084.16876100  .00045208  00000+0  14900-2 0  9999,2 46077  53.0274   1.8035 0004396  94.8962 265.2539 15.31031836311956
STARLINK-1566,46079,53.0548,0.0001307,15.06389424,546.3388247516496,548.1491193377424,1 46079U 20055BE  26084.12417075  .00004033  00000+0  28959-3 0  9990,2 46079  53.0548  27.3309 0001307  85.9235 274.1903 15.06389424311632
STARLINK-1568,46080,53.0611,0.000579,15.47692852,419.5389995726946,427.4152687400483,1 46080U 20055BF  26083.93286466  .00033448  00000+0  64166-3 0  9990,2 46080  53.0611 320.1645 0005790 165.6739 194.4433 15.47692852312558
STARLINK-1578,46082,53.0564,0.000141,15.06387766,546.2725742064595,548.2255330735861,1 46082U 20055BH  26084.53699096  .00001184  00000+0  98401-4 0  9998,2 46082  53.0564  25.4777 0001410  92.9974 267.1176 15.06387766311692
STARLINK-1579,46083,53.0544,0.0001485,15.06389332,546.2158348985386,548.2726731309813,1 46083U 20055BJ  26084.83829217  .00001255  00000+0  10318-3 0  9991,2 46083  53.0544  24.1137 0001485  92.0256 268.0903 15.06389332311737
STARLINK-1585,46117,53.0356,0.0006851,15.94816614,284.25788428807937,293.3929561962959,1 46117U 20057A   26084.83335647  .00445544  90483-4  11360-2 0  9999,2 46117  53.0356 164.9534 0006851   4.0778 165.0306 15.94816614  5923
STARLINK-1593,46119,53.041,0.0003743,15.80483131,326.56291269054145,331.5839304121155,1 46119U 20057C   26084.83335647  .00179503  00000+0  90999-3 0  9997,2 46119  53.0410 189.6687 0003743 346.4486  45.3121 15.80483131  6021
